OBJECT_NAME,OBJECT_ID,EPOCH,MEAN_MOTION,ECCENTRICITY,INCLINATION,RA_OF_ASC_NODE,ARG_OF_PERICENTER,MEAN_ANOMALY,EPHEMERIS_TYPE,CLASSIFICATION_TYPE,NORAD_CAT_ID,ELEMENT_SET_NO,REV_AT_EPOCH,BSTAR,MEAN_MOTION_DOT,MEAN_MOTION_DDOT
ONEWEB-0721,2023-068R,2026-06-03T07:03:44.222112,13.22468270,.00019659,86.6763,89.9494,78.8050,281.3304,0,U,56725,999,15610,.18340634E-3,.91E-6,0
ONEWEB-0015,2024-188A,2026-06-03T15:39:21.839904,13.11415381,.00023823,87.8895,23.7865,81.2026,278.9371,0,U,61594,999,8268,-.78020252E-3,-.264E-5,0
ONEWEB-0687,2024-188B,2026-06-03T15:19:00.612192,13.17651054,.0002324,87.9134,8.5722,92.5743,267.5655,0,U,61595,999,8411,.79345579E-4,.44E-6,0
ONEWEB-0688,2024-188C,2026-06-03T14:10:58.088640,13.17647784,.0002987,87.9143,8.5822,77.1236,283.0229,0,U,61596,999,8410,.12825288E-3,.63E-6,0
ONEWEB-0689,2024-188D,2026-06-03T14:38:20.371200,13.11419461,.0001925,87.8913,23.7517,94.4696,265.6651,0,U,61597,999,8267,.71027563E-3,.264E-5,0
ONEWEB-0690,2024-188E,2026-06-03T14:52:59.830752,13.11419134,.00016221,87.8911,23.7614,60.7264,299.4026,0,U,61598,999,8285,.16729264E-2,.606E-5,0
ONEWEB-0691,2024-188F,2026-06-03T14:45:40.369248,13.11417268,.00021851,87.8920,23.6701,83.3014,276.8363,0,U,61599,999,8270,.96928001E-3,.356E-5,0
ONEWEB-0692,2024-188G,2026-06-03T15:14:57.781536,13.11415804,.00013352,87.8896,23.7821,107.0736,253.0538,0,U,61600,999,8269,.11523426E-2,.421E-5,0
ONEWEB-0693,2024-188H,2026-06-03T14:27:58.390560,13.17651656,.00017619,87.9134,8.6000,62.9043,297.2268,0,U,61601,999,8409,.42365066E-4,.29E-6,0
ONEWEB-0695,2024-188J,2026-06-03T14:40:46.516800,13.11418522,.00017117,87.8901,23.7784,102.0932,258.0388,0,U,61602,999,8268,.80679944E-3,.299E-5,0
ONEWEB-0697,2024-188K,2026-06-03T15:27:09.908352,13.11415295,.00013478,87.8893,23.7624,110.1046,250.0227,0,U,61603,999,8267,.24336104E-4,.21E-6,0
ONEWEB-0698,2024-188L,2026-06-03T14:55:25.700736,13.11418115,.00006517,87.8895,23.7814,72.6172,287.5027,0,U,61604,999,8269,.15566143E-2,.564E-5,0
ONEWEB-0699,2024-188M,2026-06-03T14:58:21.935136,13.10371143,.00012287,87.8837,38.9668,91.3323,268.7945,0,U,61605,999,8153,-.16884929E-2,-.577E-5,0
ONEWEB-0700,2024-188N,2026-06-03T15:00:45.247680,13.10371847,.00015581,87.8861,38.8733,101.6649,258.4653,0,U,61606,999,8152,-.18284224E-2,-.626E-5,0
ONEWEB-0701,2024-188P,2026-06-03T15:24:39.734784,13.10377184,.00010988,87.8853,38.9617,96.1189,264.0064,0,U,61607,999,8153,-.9215313E-3,-.309E-5,0
ONEWEB-0702,2024-188Q,2026-06-03T14:11:28.795200,13.11418692,.00013194,87.8921,23.6918,112.2522,247.8746,0,U,61608,999,8270,-.11930247E-2,-.41E-5,0
ONEWEB-0704,2024-188R,2026-06-03T15:07:55.748640,13.10374308,.000164,87.8857,38.9526,117.9476,242.1818,0,U,61609,999,8151,-.22675139E-2,-.779E-5,0
ONEWEB-0705,2024-188S,2026-06-03T15:15:05.300928,13.10373559,.000239,87.8855,38.9579,106.3612,253.7779,0,U,61610,999,7368,-.20428292E-2,-.7E-5,0
ONEWEB-0706,2024-188T,2026-06-03T14:53:35.282400,13.10370685,.00017441,87.8843,38.9666,101.3409,258.7914,0,U,61611,999,8160,-.14958426E-2,-.509E-5,0
ONEWEB-0707,2024-188U,2026-06-03T15:03:08.634528,13.10371744,.00016837,87.8843,38.9605,104.7838,255.3476,0,U,61612,999,8154,-.21462353E-2,-.736E-5,0
ONEWEB-0708,2024-188V,2026-06-03T15:29:26.933568,13.10377847,.00022695,87.8854,38.9742,91.3588,268.7800,0,U,61613,999,8152,-.3885502E-3,-.123E-5,0
