ONEWEB-0721             
1 56725U 23068R   26154.29426183  .00000091  00000+0  18341-3 0  9996
2 56725  86.6763  89.9494 0001965  78.8050 281.3304 13.22468270156104
ONEWEB-0015             
1 61594U 24188A   26154.65233611 -.00000264  00000+0 -78020-3 0  9996
2 61594  87.8895  23.7865 0002382  81.2026 278.9371 13.11415381 82686
ONEWEB-0687             
1 61595U 24188B   26154.63820153  .00000044  00000+0  79346-4 0  9995
2 61595  87.9134   8.5722 0002324  92.5743 267.5655 13.17651054 84118
ONEWEB-0688             
1 61596U 24188C   26154.59095010  .00000063  00000+0  12825-3 0  9996
2 61596  87.9143   8.5822 0002987  77.1236 283.0229 13.17647784 84105
ONEWEB-0689             
1 61597U 24188D   26154.60995800  .00000264  00000+0  71028-3 0  9998
2 61597  87.8913  23.7517 0001925  94.4696 265.6651 13.11419461 82671
ONEWEB-0690             
1 61598U 24188E   26154.62013693  .00000606  00000+0  16729-2 0  9998
2 61598  87.8911  23.7614 0001622  60.7264 299.4026 13.11419134 82857
ONEWEB-0691             
1 61599U 24188F   26154.61505057  .00000356  00000+0  96928-3 0  9990
2 61599  87.8920  23.6701 0002185  83.3014 276.8363 13.11417268 82706
ONEWEB-0692             
1 61600U 24188G   26154.63539099  .00000421  00000+0  11523-2 0  9998
2 61600  87.8896  23.7821 0001335 107.0736 253.0538 13.11415804 82699
ONEWEB-0693             
1 61601U 24188H   26154.60275915  .00000029  00000+0  42365-4 0  9994
2 61601  87.9134   8.6000 0001761  62.9043 297.2268 13.17651656 84099
ONEWEB-0695             
1 61602U 24188J   26154.61164950  .00000299  00000+0  80680-3 0  9992
2 61602  87.8901  23.7784 0001711 102.0932 258.0388 13.11418522 82684
ONEWEB-0697             
1 61603U 24188K   26154.64386468  .00000021  00000+0  24336-4 0  9996
2 61603  87.8893  23.7624 0001347 110.1046 250.0227 13.11415295 82676
ONEWEB-0698             
1 61604U 24188L   26154.62182524  .00000564  00000+0  15566-2 0  9997
2 61604  87.8895  23.7814 0000651  72.6172 287.5027 13.11418115 82698
ONEWEB-0699             
1 61605U 24188M   26154.62386499 -.00000577  00000+0 -16885-2 0  9996
2 61605  87.8837  38.9668 0001228  91.3323 268.7945 13.10371143 81537
ONEWEB-0700             
1 61606U 24188N   26154.62552370 -.00000626  00000+0 -18284-2 0  9990
2 61606  87.8861  38.8733 0001558 101.6649 258.4653 13.10371847 81521
ONEWEB-0701             
1 61607U 24188P   26154.64212656 -.00000309  00000+0 -92153-3 0  9999
2 61607  87.8853  38.9617 0001098  96.1189 264.0064 13.10377184 81531
ONEWEB-0702             
1 61608U 24188Q   26154.59130550 -.00000410  00000+0 -11930-2 0  9992
2 61608  87.8921  23.6918 0001319 112.2522 247.8746 13.11418692 82707
ONEWEB-0704             
1 61609U 24188R   26154.63050635 -.00000779  00000+0 -22675-2 0  9999
2 61609  87.8857  38.9526 0001640 117.9476 242.1818 13.10374308 81517
ONEWEB-0705             
1 61610U 24188S   26154.63547802 -.00000700  00000+0 -20428-2 0  9996
2 61610  87.8855  38.9579 0002390 106.3612 253.7779 13.10373559 73682
ONEWEB-0706             
1 61611U 24188T   26154.62054725 -.00000509  00000+0 -14958-2 0  9991
2 61611  87.8843  38.9666 0001744 101.3409 258.7914 13.10370685 81602
ONEWEB-0707             
1 61612U 24188U   26154.62718327 -.00000736  00000+0 -21462-2 0  9997
2 61612  87.8843  38.9605 0001683 104.7838 255.3476 13.10371744 81547
ONEWEB-0708             
1 61613U 24188V   26154.64545062 -.00000123  00000+0 -38855-3 0  9999
2 61613  87.8854  38.9742 0002269  91.3588 268.7800 13.10377847 81523
